NORAD_CAT_ID,OBJECT_NAME,OBJECT_TYPE,EPOCH,MEAN_MOTION,ECCENTRICITY,INCLINATION,RA_OF_ASC_NODE,ARG_OF_PERICENTER,MEAN_ANOMALY,BSTAR,MEAN_MOTION_DOT,MEAN_MOTION_DDOT,TLE_LINE0,TLE_LINE1,TLE_LINE2,SEMIMAJOR_AXIS,PERIOD,APOGEE,PERIGEE,DECAYED
53256.0,STARLINK-4147,PAYLOAD,2023-04-03 23:46:09,15.08869489,8.64e-05,53.2152,320.6744,74.5051,285.6037,0.0010071,0.00015789,0.0,0 STARLINK-4147,1 53256U 22086Q   23093.99038765  .00015789  00000-0  10071-2 0  9994,2 53256  53.2152 320.6744 0000864  74.5051 285.6037 15.08869489 39244,6917.79,95.436,540.253,539.058,0.0
53256.0,STARLINK-4147,PAYLOAD,2023-04-04 23:36:56,15.08849798,0.0001611,53.2158,316.216,76.3084,283.8087,0.00070564,0.00010963,0.0,0 STARLINK-4147,1 53256U 22086Q   23094.98399293  .00010963  00000-0  70564-3 0  9993,2 53256  53.2158 316.2160 0001611  76.3084 283.8087 15.08849798 39392,6917.85,95.437,540.83,538.601,0.0
53256.0,STARLINK-4147,PAYLOAD,2023-04-05 20:16:57,15.08842433,8.52e-05,53.2153,312.3492,103.6921,256.4166,0.00077543,0.00012075,0.0,0 STARLINK-4147,1 53256U 22086Q   23095.84511331  .00012075  00000-0  77543-3 0  9998,2 53256  53.2153 312.3492 0000852 103.6921 256.4166 15.08842433 39700,6917.873,95.437,540.327,539.149,0.0
53256.0,STARLINK-4147,PAYLOAD,2023-04-05 21:52:20,15.08843208,8.84e-05,53.2156,312.0519,99.2069,260.9023,0.00071545,0.00011118,0.0,0 STARLINK-4147,1 53256U 22086Q   23095.91135336  .00011118  00000-0  71545-3 0  9996,2 53256  53.2156 312.0519 0000884  99.2069 260.9023 15.08843208 39532,6917.871,95.437,540.347,539.124,0.0
53256.0,STARLINK-4147,PAYLOAD,2023-04-06 01:03:07,15.08840875,0.0001074,53.2161,311.4556,85.7157,274.3957,0.00026932,4.001e-05,0.0,0 STARLINK-4147,1 53256U 22086Q   23096.04383357  .00004001  00000-0  26932-3 0  9992,2 53256  53.2161 311.4556 0001074  85.7157 274.3957 15.08840875 39736,6917.878,95.437,540.486,539.0,0.0
53256.0,STARLINK-4147,PAYLOAD,2023-04-07 13:36:59,15.08841008,8.27e-05,53.2143,304.6161,98.8182,261.2904,7.0712e-05,8.38e-06,0.0,0 STARLINK-4147,1 53256U 22086Q   23097.56735322  .00000838  00000-0  70712-4 0  9993,2 53256  53.2143 304.6161 0000827  98.8182 261.2904 15.08841008 39781,6917.877,95.437,540.314,539.17,0.0
53256.0,STARLINK-4147,PAYLOAD,2023-04-08 00:44:40,15.0885224,7.85e-05,53.2153,302.535,91.8656,268.2426,0.00019275,2.782e-05,0.0,0 STARLINK-4147,1 53256U 22086Q   23098.03102679  .00002782  00000-0  19275-3 0  9995,2 53256  53.2153 302.5350 0000785  91.8656 268.2426 15.08852240 39855,6917.843,95.437,540.251,539.165,0.0
53256.0,STARLINK-4147,PAYLOAD,2023-04-08 11:52:23,15.08834648,8.56e-05,53.2152,300.4537,82.4813,277.6276,1.6346e-06,-2.62e-06,0.0,0 STARLINK-4147,1 53256U 22086Q   23098.49471731 -.00000262  00000-0  16346-5 0  9993,2 53256  53.2152 300.4537 0000856  82.4813 277.6276 15.08834648 39925,6917.897,95.438,540.354,539.17,0.0
53256.0,STARLINK-4147,PAYLOAD,2023-04-08 13:27:46,15.08833873,8.72e-05,53.2152,300.1563,87.6936,272.4156,3.784e-05,3.14e-06,0.0,0 STARLINK-4147,1 53256U 22086Q   23098.56095761  .00000314  00000-0  37840-4 0  9994,2 53256  53.2152 300.1563 0000872  87.6936 272.4156 15.08833873 40114,6917.899,95.438,540.367,539.161,0.0
53256.0,STARLINK-4147,PAYLOAD,2023-04-09 13:18:33,15.0883889,8.99e-05,53.2151,295.6953,89.6157,270.4938,0.00015337,2.154e-05,0.0,0 STARLINK-4147,1 53256U 22086Q   23099.55455728  .00002154  00000-0  15337-3 0  9997,2 53256  53.2151 295.6953 0000899  89.6157 270.4938 15.08838890 40086,6917.884,95.438,540.371,539.127,0.0
53256.0,STARLINK-4147,PAYLOAD,2023-04-09 19:40:06,15.08849199,9.26e-05,53.2152,294.5057,89.3756,270.7343,0.00042415,6.471e-05,0.0,0 STARLINK-4147,1 53256U 22086Q   23099.81951495  .00006471  00000-0  42415-3 0  9991,2 53256  53.2152 294.5057 0000926  89.3756 270.7343 15.08849199 40305,6917.852,95.437,540.358,539.077,0.0
53256.0,STARLINK-4147,PAYLOAD,2023-04-10 13:09:20,15.08849523,8.68e-05,53.2155,291.2344,93.1863,266.9229,0.00059332,9.17e-05,0.0,0 STARLINK-4147,1 53256U 22086Q   23100.54815608  .00009170  00000-0  59332-3 0  9994,2 53256  53.2155 291.2344 0000868  93.1863 266.9229 15.08849523 40411,6917.851,95.437,540.317,539.116,0.0
53256.0,STARLINK-4147,PAYLOAD,2023-04-10 21:06:16,15.08863537,8.54e-05,53.2157,289.7476,90.7883,269.3207,0.0010409,0.00016327,0.0,0 STARLINK-4147,1 53256U 22086Q   23100.87935235  .00016327  00000-0  10409-2 0  9992,2 53256  53.2157 289.7476 0000854  90.7883 269.3207 15.08863537 40460,6917.808,95.436,540.264,539.083,0.0
53256.0,STARLINK-4147,PAYLOAD,2023-04-11 11:24:44,15.08852787,0.000169,53.2157,287.0715,88.4957,271.6229,0.00058449,9.03e-05,0.0,0 STARLINK-4147,1 53256U 22086Q   23101.47551542  .00009030  00000-0  58449-3 0  9994,2 53256  53.2157 287.0715 0001690  88.4957 271.6229 15.08852787 40557,6917.841,95.437,540.875,538.537,0.0
53256.0,STARLINK-4147,PAYLOAD,2023-04-11 19:21:40,15.08850543,0.0001548,53.2154,285.5847,86.0237,274.0932,0.00055582,8.571e-05,0.0,0 STARLINK-4147,1 53256U 22086Q   23101.80671543  .00008571  00000-0  55582-3 0  9999,2 53256  53.2154 285.5847 0001548  86.0237 274.0932 15.08850543 40602,6917.848,95.437,540.784,538.642,0.0
53256.0,STARLINK-4147,PAYLOAD,2023-04-12 04:53:59,15.08842266,0.0001057,53.2154,283.8004,93.3894,266.7219,0.00057623,8.895e-05,0.0,0 STARLINK-4147,1 53256U 22086Q   23102.20415835  .00008895  00000-0  57623-3 0  9991,2 53256  53.2154 283.8004 0001057  93.3894 266.7219 15.08842266 40488,6917.873,95.437,540.47,539.007,0.0
53256.0,STARLINK-4147,PAYLOAD,2023-04-12 12:50:55,15.08841139,0.0001421,53.2151,282.3138,96.1068,264.0086,0.00051097,7.854e-05,0.0,0 STARLINK-4147,1 53256U 22086Q   23102.53536050  .00007854  00000-0  51097-3 0  9993,2 53256  53.2151 282.3138 0001421  96.1068 264.0086 15.08841139 40713,6917.877,95.437,540.725,538.759,0.0
53256.0,STARLINK-4147,PAYLOAD,2023-04-13 04:44:46,15.08854604,9.36e-05,53.215,279.3402,77.081,283.0287,0.00091298,0.00014278,0.0,0 STARLINK-4147,1 53256U 22086Q   23103.19775742  .00014278  00000-0  91298-3 0  9994,2 53256  53.2150 279.3402 0000936  77.0810 283.0287 15.08854604 40811,6917.836,95.437,540.348,539.053,0.0
53256.0,STARLINK-4147,PAYLOAD,2023-04-13 11:06:18,15.08853802,0.0001657,53.2137,278.1534,79.9742,280.1437,0.00060711,9.391e-05,0.0,0 STARLINK-4147,1 53256U 22086Q   23103.46271830  .00009391  00000-0  60711-3 0  9999,2 53256  53.2137 278.1534 0001657  79.9742 280.1437 15.08853802 40673,6917.838,95.437,540.849,538.557,0.0
53256.0,STARLINK-4147,PAYLOAD,2023-04-13 22:14:00,15.08849305,0.0001244,53.2146,276.0695,76.4262,283.6869,0.00059287,9.163e-05,0.0,0 STARLINK-4147,1 53256U 22086Q   23103.92639728  .00009163  00000-0  59287-3 0  9997,2 53256  53.2146 276.0695 0001244  76.4262 283.6869 15.08849305 40747,6917.852,95.437,540.578,538.856,0.0
53256.0,STARLINK-4147,PAYLOAD,2023-04-14 10:57:06,15.08846682,0.0002314,53.2086,273.692,64.0626,296.0604,0.0002551,3.775e-05,0.0,0 STARLINK-4147,1 53256U 22086Q   23104.45632081  .00003775  00000-0  25510-3 0  9996,2 53256  53.2086 273.6920 0002314  64.0626 296.0604 15.08846682 41000,6917.86,95.437,541.326,538.124,0.0
53256.0,STARLINK-4147,PAYLOAD,2023-04-15 10:47:53,15.0884517,0.0001509,53.2126,269.2301,85.3698,274.7466,0.00063872,9.893e-05,0.0,0 STARLINK-4147,1 53256U 22086Q   23105.44992104  .00009893  00000-0  63872-3 0  9991,2 53256  53.2126 269.2301 0001509  85.3698 274.7466 15.08845170 40974,6917.865,95.437,540.773,538.686,0.0
53256.0,STARLINK-4147,PAYLOAD,2023-04-15 20:20:11,15.08857584,0.00012,53.2146,267.4447,92.8103,267.3026,0.00095614,0.00014969,0.0,0 STARLINK-4147,1 53256U 22086Q   23105.84735749  .00014969  00000-0  95614-3 0  9994,2 53256  53.2146 267.4447 0001200  92.8103 267.3026 15.08857584 41219,6917.827,95.436,540.522,538.862,0.0
53256.0,STARLINK-4147,PAYLOAD,2023-04-16 04:17:07,15.08845298,0.0001048,53.215,265.9601,82.9987,277.1125,0.00032593,4.904e-05,0.0,0 STARLINK-4147,1 53256U 22086Q   23106.17855921  .00004904  00000-0  32593-3 0  9991,2 53256  53.2150 265.9601 0001048  82.9987 277.1125 15.08845298 41082,6917.864,95.437,540.454,539.004,0.0
53256.0,STARLINK-4147,PAYLOAD,2023-04-16 13:49:26,15.08841311,0.0001221,53.2152,264.1751,99.3263,260.7868,0.00016872,2.398e-05,0.0,0 STARLINK-4147,1 53256U 22086Q   23106.57600031  .00002398  00000-0  16872-3 0  9992,2 53256  53.2152 264.1751 0001221  99.3263 260.7868 15.08841311 41324,6917.876,95.437,540.586,538.897,0.0
53256.0,STARLINK-4147,PAYLOAD,2023-04-16 17:00:12,15.08845783,0.0001216,53.2153,263.5803,98.0747,262.0383,0.00022259,3.257e-05,0.0,0 STARLINK-4147,1 53256U 22086Q   23106.70847948  .00003257  00000-0  22259-3 0  9998,2 53256  53.2153 263.5803 0001216  98.0747 262.0383 15.08845783 41349,6917.863,95.437,540.569,538.887,0.0
53256.0,STARLINK-4147,PAYLOAD,2023-04-17 10:29:27,15.08840599,0.0001175,53.2151,260.3093,98.3787,261.7339,0.00012935,1.771e-05,0.0,0 STARLINK-4147,1 53256U 22086Q   23107.43712161  .00001771  00000-0  12935-3 0  9996,2 53256  53.2151 260.3093 0001175  98.3787 261.7339 15.08840599 41273,6917.879,95.438,540.556,538.931,0.0
53256.0,STARLINK-4147,PAYLOAD,2023-04-17 13:40:13,15.08841876,0.0001201,53.2155,259.7145,98.236,261.8768,0.00013545,1.869e-05,0.0,0 STARLINK-4147,1 53256U 22086Q   23107.56960153  .00001869  00000-0  13545-3 0  9992,2 53256  53.2155 259.7145 0001201  98.2360 261.8768 15.08841876 41471,6917.875,95.437,540.57,538.909,0.0
53256.0,STARLINK-4147,PAYLOAD,2023-04-17 18:26:22,15.08851655,0.0001102,53.2153,258.8221,85.1198,274.992,0.00040199,6.118e-05,0.0,0 STARLINK-4147,1 53256U 22086Q   23107.76831856  .00006118  00000-0  40199-3 0  9998,2 53256  53.2153 258.8221 0001102  85.1198 274.9920 15.08851655 41503,6917.845,95.437,540.472,538.947,0.0
53256.0,STARLINK-4147,PAYLOAD,2023-04-18 10:20:14,15.08833254,9.32e-05,53.2156,255.8484,85.8724,274.2375,3.2027e-06,-2.37e-06,0.0,0 STARLINK-4147,1 53256U 22086Q   23108.43072556 -.00000237  00000-0  32027-5 0  9997,2 53256  53.2156 255.8484 0000932  85.8724 274.2375 15.08833254 41609,6917.901,95.438,540.411,539.121,0.0
